[{"OBJECT_NAME":"STARLINK-35186","OBJECT_ID":"2025-207V","EPOCH":"2026-03-09T17:36:36.958176","MEAN_MOTION":15.05644925,"ECCENTRICITY":3.438e-5,"INCLINATION":97.6037,"RA_OF_ASC_NODE":138.6399,"ARG_OF_PERICENTER":92.9692,"MEAN_ANOMALY":267.1574,"EPHEMERIS_TYPE":0,"CLASSIFICATION_TYPE":"U","NORAD_CAT_ID":65611,"ELEMENT_SET_NO":999,"REV_AT_EPOCH":2826,"BSTAR":0.00015310109,"MEAN_MOTION_DOT":2.149e-5,"MEAN_MOTION_DDOT":0},{"OBJECT_NAME":"CZ-4B DEB","OBJECT_ID":"2004-035N","EPOCH":"2026-03-08T07:19:22.074240","MEAN_MOTION":15.17712882,"ECCENTRICITY":0.00700404,"INCLINATION":97.867,"RA_OF_ASC_NODE":11.9774,"ARG_OF_PERICENTER":119.6038,"MEAN_ANOMALY":241.2197,"EPHEMERIS_TYPE":0,"CLASSIFICATION_TYPE":"U","NORAD_CAT_ID":35270,"ELEMENT_SET_NO":999,"REV_AT_EPOCH":13623,"BSTAR":0.0033008842,"MEAN_MOTION_DOT":0.00071474,"MEAN_MOTION_DDOT":0}]
